BATSU-CS1 (IRAZU)       
1 43468U 98067NR  20051.66269125  .00422242  92192-4  63258-3 0  9990
2 43468  51.6278 133.4910 0007552   5.0225 355.0861 16.04096968201976
CUBERRT                 
1 43546U 98067NU  20051.54509927  .00014000  00000-0  12068-3 0  9996
2 43546  51.6353 164.6109 0003785 359.8761   0.2235 15.69578665 91703
TEMPEST-D               
1 43547U 98067NV  20051.54266962  .00007562  00000-0  95196-4 0  9995
2 43547  51.6362 186.4162 0004887 335.8990  24.1774 15.60750992 91098
RAINCUBE                
1 43548U 98067NW  20051.73857183  .00025995  00000-0  22940-3 0  9994
2 43548  51.6340 171.8826 0004661 352.5888   7.5039 15.68503742 91751
HALOSAT                 
1 43549U 98067NX  20051.57174934  .00020013  00000-0  18024-3 0  9997
2 43549  51.6358 173.0659 0004446 353.3122   6.7814 15.68182994 91282
ENDUROSAT ONE           
1 43551U 98067NZ  20051.72159085  .00034980  00000-0  26352-3 0  9998
2 43551  51.6335 165.7659 0004859   2.7013 357.4011 15.72152070 91800
EQUISAT                 
1 43552U 98067PA  20051.71054112  .00025120  00000-0  22048-3 0  9997
2 43552  51.6363 171.0336 0005279   0.7916 359.3088 15.68654623 91699
AEROCUBE 12A            
1 43556U 18046C   20051.18345931  .00001630  00000-0  68745-4 0  9998
2 43556  51.6430 313.6771 0007758 229.5880 130.4424 15.29417860 89270
AEROCUBE 12B            
1 43557U 18046D   20051.74725134  .00000947  00000-0  45432-4 0  9996
2 43557  51.6428 311.4329 0007773 231.1151 128.9136 15.29190927 89308
UITMSAT-1               
1 43589U 98067PD  20051.56433610  .00031976  00000-0  26504-3 0  9991
2 43589  51.6331 171.4227 0004635   6.9570 353.1490 15.69911723 87418
MAYA-1                  
1 43590U 98067PE  20051.55744527  .00032501  00000-0  26931-3 0  9993
2 43590  51.6333 171.3864 0004756   8.0120 352.0953 15.69909582 87340
BHUTAN-1                
1 43591U 98067PF  20051.34704736  .00029142  00000-0  24141-3 0  9997
2 43591  51.6341 172.2799 0004813   7.7368 352.3702 15.69976174 87314
SIRIUSSAT-1             
1 43595U 98067PG  20051.75805617  .00027783  00000-0  24576-3 0  9997
2 43595  51.6333 173.4863 0002981 333.0283  27.0559 15.68411305 86515
SIRIUSSAT-2             
1 43596U 98067PH  20051.74855575  .00028491  00000-0  25270-3 0  9994
2 43596  51.6341 174.2363 0003393 330.9166  29.1642 15.68329763 86504
TANUSHA-3               
1 43597U 98067PJ  20051.70068462  .00044112  00000-0  31722-3 0  9999
2 43597  51.6311 167.7729 0003320 344.5152  15.5745 15.73145014 86583
SURFSAT                 
1 43614U 18070B   20051.70755440  .00003346  00000-0  87554-4 0  9993
2 43614  93.0305 105.9102 0018145  75.6564 284.6702 15.38621833 80377
CP7 (DAVE)              
1 43615U 18070C   20051.72901951  .00003214  00000-0  84406-4 0  9993
2 43615  93.0308 105.9153 0018289  75.0602 285.2675 15.38505861 80371
ELFIN-B                 
1 43616U 18070D   20051.40766742  .00004792  00000-0  12132-3 0  9994
2 43616  93.0271 105.6962 0018855  78.4377 281.8993 15.39592627 80351
ELFIN-A                 
1 43617U 18070E   20051.71317861  .00005329  00000-0  13435-3 0  9997
2 43617  93.0325 106.2364 0018109  74.6570 285.6684 15.39730692 80401
CUBEBEL-1 (BSUSAT-1)    
1 43666U 18083E   20051.71973711  .00001026  00000-0  53640-4 0  9990
2 43666  97.5016  79.2854 0016279  53.4620  54.7960 15.18023573 72752
DEBRISSAT-2             
1 43680U 98067PR  20051.70783191  .00076455  00000-0  43005-3 0  9997
2 43680  51.6341 163.3472 0003350 351.7319   8.3626 15.78533787 95372
CICERO 10               
1 43690U 18088A   20051.72764717  .00001196  00000-0  53484-4 0  9991
2 43690  85.0414 155.8815 0015837  30.0697 330.1450 15.20042496 70857
IRVINE01                
1 43693U 18088D   20051.52377069  .00002947  00000-0  12555-3 0  9990
2 43693  85.0385 155.0446 0017879  12.8210 347.3483 15.22360249 70909
PROXIMA I               
1 43694U 18088E   20051.72220690  .00001093  00000-0  46214-4 0  9991
2 43694  85.0357 154.7125 0019155   3.3988 356.7380 15.21773956 70930
PROXIMA II              
1 43696U 18088G   20051.52337045  .00001088  00000-0  45983-4 0  9990
2 43696  85.0358 154.8463 0019222   4.0443 356.0950 15.21777325 70905
FACSAT-1                
1 43721U 18096C   20051.65531851  .00002127  00000-0  83036-4 0  9999
2 43721  97.4329 125.8279 0017995 173.6356 186.5114 15.26894044 68417
CENTAURI-2              
1 43722U 18096D   20051.71774451  .00002702  00000-0  10337-3 0  9994
2 43722  97.4336 126.0642 0018059 173.6904 186.4566 15.27315347 68420
INNOSAT-2               
1 43738U 18096V   20051.74012610  .00003973  00000-0  13953-3 0  9994
2 43738  97.4348 127.5856 0023828 183.3501 176.7584 15.29727567 68531
SIRION PATHFINDER-2     
1 43759U 18099B   20051.73242435  .00000226  00000-0  25714-4 0  9996
2 43759  97.7179 125.3348 0013638 211.1482 148.8931 14.95227059 66332
CORVUS-BC 4             
1 43767U 18099K   20051.49593427  .00000188  00000-0  22569-4 0  9990
2 43767  97.7166 124.6395 0010911 214.7815 145.2694 14.94670906 66284
MOVE-II                 
1 43780U 18099Y   20051.68570302  .00000910  00000-0  87721-4 0  9997
2 43780  97.7185 125.1945 0012668 222.4646 137.5596 14.95283826 66317
SPACEBEE-7              
1 43816U 18099BL  20051.44808769 -.00000051  00000-0  62197-6 0  9991
2 43816  97.7198 125.2785 0012851 208.0066 152.0465 14.95593448 65853
SPACEBEE-5              
1 43817U 18099BM  20051.44453665  .00000595  00000-0  58039-4 0  9993
2 43817  97.7240 125.5525 0012784 207.8827 152.1711 14.96071581 65860
SPACEBEE-6              
1 43818U 18099BN  20051.42511036  .00000939  00000-0  89316-4 0  9993
2 43818  97.7212 125.3429 0012804 206.8084 153.2476 14.95746688 66001
SHIELDS 1               
1 43850U 18104B   20051.46367919  .00000042  00000-0  00000-0 0  9993
2 43850  85.0261 253.3312 0016301 137.1702 223.0851 15.21279398 65532
STF-1                   
1 43852U 18104D   20051.72674944  .00000041  00000-0  00000+0 0  9991
2 43852  85.0310 253.6131 0015480 148.9135 211.3099 15.21029031 65551
ZACUBE-2                
1 43907U 18111AH  20051.76637606  .00000628  00000-0  28284-4 0  9998
2 43907  97.2765 315.0069 0021008 195.0517 165.0099 15.24456671 64083
LUME 1                  
1 43908U 18111AJ  20051.72106542  .00001157  00000-0  49245-4 0  9993
2 43908  97.2764 315.0636 0020806 195.0620 165.0001 15.24796619 64085
AOBA VELOX-IV           
1 43940U 19003J   20051.73895770  .00001641  00000-0  69014-4 0  9993
2 43940  97.2452 106.9813 0022337 280.5087 218.4920 15.24576593 60713
CATSAT-2                
1 44029U 98067PV  20051.57422546  .00017239  00000-0  20262-3 0  9999
2 44029  51.6375 191.9177 0004022 359.9337   0.1655 15.61546938 60089
DELPHINI                
1 44030U 98067PW  20051.77895811  .00021042  00000-0  24011-3 0  9995
2 44030  51.6347 190.2220 0004125 355.3620   4.7335 15.62162266 60095
UNITE                   
1 44031U 98067PX  20051.77759329  .00011240  00000-0  14718-3 0  9991
2 44031  51.6361 193.9970 0003057 355.3003   4.7961 15.59124347 60046
TECHEDSAT 8             
1 44032U 98067PY  20051.55408438  .00108512  00000-0  57639-3 0  9998
2 44032  51.6290 175.1185 0004730 340.8295  19.2528 15.79653562 60250
CATSAT-1                
1 44033U 98067PZ  20051.63803523  .00016595  00000-0  19529-3 0  9997
2 44033  51.6377 191.5979 0003944 358.2036   1.8943 15.61547027 60002
RAAVANA-1               
1 44329U 98067QE  20051.72023913  .00011771  00000-0  17528-3 0  9990
2 44329  51.6384 203.3964 0006118 282.4867  77.5440 15.55574517 38666
UGUISU                  
1 44330U 98067QF  20051.66323901  .00011398  00000-0  17034-3 0  9992
2 44330  51.6380 203.7635 0006123 280.7883  79.2419 15.55512733 38632
NEPALISAT-1             
1 44331U 98067QG  20051.58635773  .00011859  00000-0  17636-3 0  9997
2 44331  51.6380 204.0023 0006178 283.5412  76.4891 15.55601911 38637
SPOOQY-1                
1 44332U 98067QH  20051.77729140  .00011578  00000-0  17260-3 0  9992
2 44332  51.6380 203.0245 0005040 286.7941  73.2497 15.55567971 38625
SPACEBEE-9              
1 44370U 19037F   20051.42111553  .00007965  00000-0  19275-3 0  9992
2 44370  45.0096  54.8519 0012195 219.0020 141.0007 15.41621542 36371
SPACEBEE-8              
1 44371U 19037G   20051.43140834  .00014617  00000-0  31792-3 0  9998
2 44371  45.0114  52.4052 0010086 224.9381 135.0726 15.44222661 36396
IOD-1 GEMS              
1 44385U 98067QK  20051.63740657  .00017866  00000-0  25244-3 0  9998
2 44385  51.6391 203.6231 0002734 245.4997 114.5709 15.56620780 36112
MOVE-IIB                
1 44398U 19038N   20051.50356166  .00001292  00000-0  78422-4 0  9990
2 44398  97.5216  14.3671 0025462 170.1187 190.0550 15.12055541 34754
SONATE                  
1 44400U 19038Q   20051.51484294  .00000553  00000-0  35962-4 0  9990
2 44400  97.5244  14.3970 0025534 168.4448 191.7374 15.11834747 34755
LUCKY-7                 
1 44406U 19038W   20051.55001550  .00000608  00000-0  38893-4 0  9997
2 44406  97.5240  14.4972 0024980 168.1892 191.9929 15.12067653 34757
BEESAT 9                
1 44412U 19038AC  20051.61906394  .00000872  00000-0  54171-4 0  9991
2 44412  97.5234  14.5483 0022903 173.4136 186.7400 15.12095753 34464
JAISAT-1                
1 44419U 19038F   20051.54462864  .00000842  00000-0  51753-4 0  9999
2 44419  97.5235  14.6501 0021765 172.9170 187.2372 15.12577724 34772
SWIATOWID               
1 44426U 98067QL  20051.64331521  .00017509  00000-0  24487-3 0  9993
2 44426  51.6407 203.5194 0003940 231.4630 191.6551 15.56912180 36133
KRAKSAT                 
1 44427U 98067QM  20051.80082857  .00008782  00000-0  13917-3 0  9996
2 44427  51.6396 204.7070 0003396 233.8850 126.1827 15.54241484 36175
VCC A                   
1 44428U 98067QN  20051.79767643  .00011627  00000-0  17661-3 0  9990
2 44428  51.6397 203.9392 0002611 257.0493 103.0206 15.55053350 36185
